STARLINK-32104          
1 59695U 24086P   26067.99879832 -.00000399  00000+0 -49896-5 0  9993
2 59695  43.0055  60.5074 0000825 257.1270 102.9489 15.27576384104044
TEVEL2-1                
1 63217U 25052H   26068.64782323  .00020683  00000+0  70600-3 0  9994
2 63217  97.3991 324.7682 0004767 104.8919 255.2849 15.30341923 54855
